start=new Date('2023-01-09T00:00:00.000Z').valueOf();
sats=[{"COUNTRY_CODE":"US","PERIAPSIS":"537.650","TIME_SYSTEM":"UTC","REF_FRAME":"TEME","APOAPSIS":"541.826","NORAD_CAT_ID":"49748","OBJECT_TYPE":"PAYLOAD","MEAN_MOTION_DOT":"0.00001967","ARG_OF_PERICENTER":"22.7001","SITE":"AFETR","MEAN_MOTION":"15.08842488","EPOCH":"2023-01-08T11:58:18.012576","INCLINATION":"53.2172","REV_AT_EPOCH":"6099","TLE_LINE1":"1 49748U 21115AA  23008.49881959  .00001967  00000-0  14165-3 0  9991","ELEMENT_SET_NO":"999","OBJECT_ID":"2021-115AA","EPHEMERIS_TYPE":"0","MEAN_ANOMALY":"337.4124","LAUNCH_DATE":"2021-12-02","TLE_LINE2":"2 49748  53.2172 299.4781 0003018  22.7001 337.4124 15.08842488 60994","ECCENTRICITY":"0.00030180","PERIOD":"95.437","BSTAR":"0.00014165000000","GP_ID":"222467533","OBJECT_NAME":"STARLINK-3248","FILE":"3736235","MEAN_MOTION_DDOT":"0.0000000000000","CENTER_NAME":"EARTH","RA_OF_ASC_NODE":"299.4781","RCS_SIZE":"LARGE","SEMIMAJOR_AXIS":"6917.873","DECAY_DATE":null,"CLASSIFICATION_TYPE":"U","MEAN_ELEMENT_THEORY":"SGP4"},{"REF_FRAME":"TEME","TIME_SYSTEM":"UTC","PERIAPSIS":"538.472","COUNTRY_CODE":"US","MEAN_MOTION":"15.08839847","SITE":"AFETR","ARG_OF_PERICENTER":"70.6011","MEAN_MOTION_DOT":"0.00001669","OBJECT_TYPE":"PAYLOAD","NORAD_CAT_ID":"49749","APOAPSIS":"541.020","MEAN_ANOMALY":"289.5180","EPHEMERIS_TYPE":"0","ELEMENT_SET_NO":"999","OBJECT_ID":"2021-115AB","TLE_LINE1":"1 49749U 21115AB  23008.81899910  .00001669  00000-0  12293-3 0  9993","REV_AT_EPOCH":"6103","INCLINATION":"53.2165","EPOCH":"2023-01-08T19:39:21.522240","CLASSIFICATION_TYPE":"U","MEAN_ELEMENT_THEORY":"SGP4","SEMIMAJOR_AXIS":"6917.881","DECAY_DATE":null,"RCS_SIZE":"LARGE","RA_OF_ASC_NODE":"298.0251","MEAN_MOTION_DDOT":"0.0000000000000","CENTER_NAME":"EARTH","GP_ID":"222499766","FILE":"3736460","OBJECT_NAME":"STARLINK-3250","BSTAR":"0.00012293000000","PERIOD":"95.438","ECCENTRICITY":"0.00018420","TLE_LINE2":"2 49749  53.2165 298.0251 0001842  70.6011 289.5180 15.08839847 61030","LAUNCH_DATE":"2021-12-02"},{"PERIAPSIS":"538.094","TIME_SYSTEM":"UTC","REF_FRAME":"TEME","COUNTRY_CODE":"US","MEAN_MOTION":"15.08825196","OBJECT_TYPE":"PAYLOAD","MEAN_MOTION_DOT":"0.00010514","ARG_OF_PERICENTER":"33.9714","APOAPSIS":"541.487","NORAD_CAT_ID":"49750","SITE":"AFETR","ELEMENT_SET_NO":"999","OBJECT_ID":"2021-115AC","TLE_LINE1":"1 49750U 21115AC  23008.50619438  .00010514  00000-0  67794-3 0  9991","MEAN_ANOMALY":"326.1435","EPHEMERIS_TYPE":"0","EPOCH":"2023-01-08T12:08:55.194432","INCLINATION":"53.2175","REV_AT_EPOCH":"6210","MEAN_MOTION_DDOT":"0.0000000000000","CENTER_NAME":"EARTH","RCS_SIZE":"LARGE","RA_OF_ASC_NODE":"299.4329","CLASSIFICATION_TYPE":"U","MEAN_ELEMENT_THEORY":"SGP4","SEMIMAJOR_AXIS":"6917.926","DECAY_DATE":null,"TLE_LINE2":"2 49750  53.2175 299.4329 0002452  33.9714 326.1435 15.08825196 62106","LAUNCH_DATE":"2021-12-02","ECCENTRICITY":"0.00024520","PERIOD":"95.438","BSTAR":"0.00067794000000","GP_ID":"222475458","OBJECT_NAME":"STARLINK-3236","FILE":"3736436"},{"MEAN_MOTION":"15.08844578","SITE":"AFETR","NORAD_CAT_ID":"49751","APOAPSIS":"541.278","ARG_OF_PERICENTER":"27.4749","OBJECT_TYPE":"PAYLOAD","MEAN_MOTION_DOT":"0.00001322","REF_FRAME":"TEME","TIME_SYSTEM":"UTC","PERIAPSIS":"538.185","COUNTRY_CODE":"US","DECAY_DATE":null,"SEMIMAJOR_AXIS":"6917.866","MEAN_ELEMENT_THEORY":"SGP4","CLASSIFICATION_TYPE":"U","RCS_SIZE":"LARGE","RA_OF_ASC_NODE":"297.9983","MEAN_MOTION_DDOT":"0.0000000000000","CENTER_NAME":"EARTH","GP_ID":"222498765","OBJECT_NAME":"STARLINK-3229","FILE":"3736460","BSTAR":"0.00010116000000","ECCENTRICITY":"0.00022350","PERIOD":"95.437","LAUNCH_DATE":"2021-12-02","TLE_LINE2":"2 49751  53.2164 297.9983 0002235  27.4749 332.6360 15.08844578 61045","EPHEMERIS_TYPE":"0","MEAN_ANOMALY":"332.6360","TLE_LINE1":"1 49751U 21115AD  23008.82634979  .00001322  00000-0  10116-3 0  9997","ELEMENT_SET_NO":"999","OBJECT_ID":"2021-115AD","REV_AT_EPOCH":"6104","INCLINATION":"53.2164","EPOCH":"2023-01-08T19:49:56.621856"},{"MEAN_MOTION":"15.08825089","SITE":"AFETR","ARG_OF_PERICENTER":"25.1871","OBJECT_TYPE":"PAYLOAD","MEAN_MOTION_DOT":"0.00002059","NORAD_CAT_ID":"49752","APOAPSIS":"541.677","REF_FRAME":"TEME","TIME_SYSTEM":"UTC","PERIAPSIS":"537.904","COUNTRY_CODE":"US","MEAN_ELEMENT_THEORY":"SGP4","CLASSIFICATION_TYPE":"U","DECAY_DATE":null,"SEMIMAJOR_AXIS":"6917.926","RA_OF_ASC_NODE":"290.8632","RCS_SIZE":"LARGE","MEAN_MOTION_DDOT":"0.0000000000000","CENTER_NAME":"EARTH","GP_ID":"222435156","FILE":"3735871","OBJECT_NAME":"STARLINK-3209","BSTAR":"0.00014750000000","PERIOD":"95.438","ECCENTRICITY":"0.00027270","TLE_LINE2":"2 49752  53.2171 290.8632 0002727  25.1871 334.9253 15.08825089 62193","LAUNCH_DATE":"2021-12-02","MEAN_ANOMALY":"334.9253","EPHEMERIS_TYPE":"0","ELEMENT_SET_NO":"999","OBJECT_ID":"2021-115AE","TLE_LINE1":"1 49752U 21115AE  23008.19063348  .00002059  00000-0  14750-3 0  9990","REV_AT_EPOCH":"6219","INCLINATION":"53.2171","EPOCH":"2023-01-08T04:34:30.732672"},{"TIME_SYSTEM":"UTC","PERIAPSIS":"537.994","REF_FRAME":"TEME","COUNTRY_CODE":"US","MEAN_MOTION":"15.08816215","ARG_OF_PERICENTER":"39.0658","OBJECT_TYPE":"PAYLOAD","MEAN_MOTION_DOT":"0.00006143","NORAD_CAT_ID":"49753","APOAPSIS":"541.642","SITE":"AFETR","ELEMENT_SET_NO":"999","OBJECT_ID":"2021-115AF","TLE_LINE1":"1 49753U 21115AF  23008.50252571  .00006143  00000-0  40396-3 0  9997","MEAN_ANOMALY":"321.0524","EPHEMERIS_TYPE":"0","EPOCH":"2023-01-08T12:03:38.221344","REV_AT_EPOCH":"6099","INCLINATION":"53.2192","RCS_SIZE":"LARGE","RA_OF_ASC_NODE":"299.4608","CENTER_NAME":"EARTH","MEAN_MOTION_DDOT":"0.0000000000000","CLASSIFICATION_TYPE":"U","MEAN_ELEMENT_THEORY":"SGP4","SEMIMAJOR_AXIS":"6917.953","DECAY_DATE":null,"PERIOD":"95.439","ECCENTRICITY":"0.00026370","LAUNCH_DATE":"2021-12-02","TLE_LINE2":"2 49753  53.2192 299.4608 0002637  39.0658 321.0524 15.08816215 60997","OBJECT_NAME":"STARLINK-3200","GP_ID":"222467784","FILE":"3736235","BSTAR":"0.00040396000000"},{"GP_ID":"222467034","FILE":"3736235","OBJECT_NAME":"STARLINK-3193","BSTAR":"0.00034653000000","ECCENTRICITY":"0.00021880","PERIOD":"95.438","LAUNCH_DATE":"2021-12-02","TLE_LINE2":"2 49754  53.2167 290.5763 0002188  36.8866 323.2276 15.08831386 61097","CLASSIFICATION_TYPE":"U","MEAN_ELEMENT_THEORY":"SGP4","DECAY_DATE":null,"SEMIMAJOR_AXIS":"6917.907","RA_OF_ASC_NODE":"290.5763","RCS_SIZE":"LARGE","MEAN_MOTION_DDOT":"0.0000000000000","CENTER_NAME":"EARTH","REV_AT_EPOCH":"6109","INCLINATION":"53.2167","EPOCH":"2023-01-08T06:00:40.245984","MEAN_ANOMALY":"323.2276","EPHEMERIS_TYPE":"0","ELEMENT_SET_NO":"999","OBJECT_ID":"2021-115AG","TLE_LINE1":"1 49754U 21115AG  23008.25046581  .00005230  00000-0  34653-3 0  9997","SITE":"AFETR","ARG_OF_PERICENTER":"36.8866","MEAN_MOTION_DOT":"0.00005230","OBJECT_TYPE":"PAYLOAD","NORAD_CAT_ID":"49754","APOAPSIS":"541.285","MEAN_MOTION":"15.08831386","COUNTRY_CODE":"US","REF_FRAME":"TEME","TIME_SYSTEM":"UTC","PERIAPSIS":"538.258"},{"DECAY_DATE":null,"SEMIMAJOR_AXIS":"6917.868","MEAN_ELEMENT_THEORY":"SGP4","CLASSIFICATION_TYPE":"U","MEAN_MOTION_DDOT":"0.0000000000000","CENTER_NAME":"EARTH","RA_OF_ASC_NODE":"299.4155","RCS_SIZE":"LARGE","BSTAR":"0.00023157000000","GP_ID":"222475204","FILE":"3736436","OBJECT_NAME":"STARLINK-3210","LAUNCH_DATE":"2021-12-02","TLE_LINE2":"2 49755  53.2155 299.4155 0001409  98.7893 261.3259 15.08844136 62103","PERIOD":"95.437","ECCENTRICITY":"0.00014090","EPHEMERIS_TYPE":"0","MEAN_ANOMALY":"261.3259","TLE_LINE1":"1 49755U 21115AH  23008.50987881  .00003400  00000-0  23157-3 0  9997","ELEMENT_SET_NO":"999","OBJECT_ID":"2021-115AH","INCLINATION":"53.2155","REV_AT_EPOCH":"6210","EPOCH":"2023-01-08T12:14:13.529184","MEAN_MOTION":"15.08844136","SITE":"AFETR","APOAPSIS":"540.707","NORAD_CAT_ID":"49755","OBJECT_TYPE":"PAYLOAD","MEAN_MOTION_DOT":"0.00003400","ARG_OF_PERICENTER":"98.7893","REF_FRAME":"TEME","PERIAPSIS":"538.758","TIME_SYSTEM":"UTC","COUNTRY_CODE":"US"},{"GP_ID":"222498516","OBJECT_NAME":"STARLINK-3207","FILE":"3736460","BSTAR":"0.00093366000000","PERIOD":"95.437","ECCENTRICITY":"0.00025090","LAUNCH_DATE":"2021-12-02","TLE_LINE2":"2 49756  53.2173 287.8151 0002509  24.0978 336.0131 15.08842219 61185","SEMIMAJOR_AXIS":"6917.874","DECAY_DATE":null,"CLASSIFICATION_TYPE":"U","MEAN_ELEMENT_THEORY":"SGP4","RA_OF_ASC_NODE":"287.8151","RCS_SIZE":"LARGE","CENTER_NAME":"EARTH","MEAN_MOTION_DDOT":"0.0000000000000","REV_AT_EPOCH":"6118","INCLINATION":"53.2173","EPOCH":"2023-01-08T20:44:15.762912","EPHEMERIS_TYPE":"0","MEAN_ANOMALY":"336.0131","TLE_LINE1":"1 49756U 21115AJ  23008.86407133  .00014604  00000-0  93366-3 0  9991","ELEMENT_SET_NO":"999","OBJECT_ID":"2021-115AJ","SITE":"AFETR","NORAD_CAT_ID":"49756","APOAPSIS":"541.474","ARG_OF_PERICENTER":"24.0978","MEAN_MOTION_DOT":"0.00014604","OBJECT_TYPE":"PAYLOAD","MEAN_MOTION":"15.08842219","COUNTRY_CODE":"US","REF_FRAME":"TEME","TIME_SYSTEM":"UTC","PERIAPSIS":"538.003"},{"COUNTRY_CODE":"US","REF_FRAME":"TEME","TIME_SYSTEM":"UTC","PERIAPSIS":"538.160","SITE":"AFETR","NORAD_CAT_ID":"49757","APOAPSIS":"541.356","ARG_OF_PERICENTER":"38.2821","MEAN_MOTION_DOT":"0.00005672","OBJECT_TYPE":"PAYLOAD","MEAN_MOTION":"15.08835937","REV_AT_EPOCH":"6219","INCLINATION":"53.2162","EPOCH":"2023-01-08T04:39:48.752064","EPHEMERIS_TYPE":"0","MEAN_ANOMALY":"321.8335","TLE_LINE1":"1 49757U 21115AK  23008.19431426  .00005672  00000-0  37420-3 0  9994","ELEMENT_SET_NO":"999","OBJECT_ID":"2021-115AK","GP_ID":"222435157","OBJECT_NAME":"STARLINK-3197","FILE":"3735871","BSTAR":"0.00037420000000","ECCENTRICITY":"0.00023100","PERIOD":"95.438","TLE_LINE2":"2 49757  53.2162 290.8247 0002310  38.2821 321.8335 15.08835937 62197","LAUNCH_DATE":"2021-12-02","DECAY_DATE":null,"SEMIMAJOR_AXIS":"6917.893","CLASSIFICATION_TYPE":"U","MEAN_ELEMENT_THEORY":"SGP4","RCS_SIZE":"LARGE","RA_OF_ASC_NODE":"290.8247","MEAN_MOTION_DDOT":"0.0000000000000","CENTER_NAME":"EARTH"}];
